ORBCOMM FM24            
1 25478U 98053D   24219.77627825  .00002257  00000+0  81707-3 0  9994
2 25478  45.0091 317.8203 0001293 205.5700 154.5083 14.36056838352498
ORBCOMM FM25            
1 25479U 98053E   24219.74373736  .00002538  00000+0  91287-3 0  9997
2 25479  45.0083 316.2241 0002910 145.6920 214.4115 14.36041863352506
ORBCOMM FM26            
1 25480U 98053F   24219.71656824  .00001821  00000+0  67695-3 0  9998
2 25480  45.0075 310.8624 0005468 153.6726 206.4400 14.35422363352435
ORBCOMM FM27            
1 25481U 98053G   24219.73259927  .00002485  00000+0  89515-3 0  9996
2 25481  45.0065 316.5372 0002443 240.3851 119.6753 14.36029572352433
ORBCOMM FM28            
1 25482U 98053H   24219.55406891  .00001734  00000+0  63416-3 0  9999
2 25482  45.0041 255.5630 0003733 200.6025 159.4673 14.36428742353089
ORBCOMM FM30            
1 25980U 99065A   24219.87902977  .00002318  00000+0  84604-3 0  9998
2 25980  45.0311 135.7102 0005611 244.5743 115.4524 14.35555693289255
ORBCOMM FM31            
1 25981U 99065B   24219.91449842  .00001990  00000+0  73345-3 0  9996
2 25981  45.0225 129.1753 0003410 277.8522  82.1938 14.35545324288818
ORBCOMM FM32            
1 25982U 99065C   24219.88786026  .00002128  00000+0  79637-3 0  9995
2 25982  45.0150 143.7310 0005797 273.8387  86.1797 14.34554774289436
